GLOBALSTAR M023 [+]     
1 25621U 99004A   23282.00391119 -.00000171  00000+0 -37692-3 0  9999
2 25621  52.0091 132.6672 0009394 196.3570 339.2679 12.62442503137861
GLOBALSTAR M036 [-]     
1 25623U 99004C   23281.84940326 -.00000067  00000+0  22653-3 0  9996
2 25623  51.9967  67.4125 0010219 313.8295 202.0850 11.86554021105675
GLOBALSTAR M038 [-]     
1 25624U 99004D   23281.80697522 -.00000063  00000+0  26191-3 0  9997
2 25624  51.9986  49.4839 0001745 181.8763 344.2867 12.32485379126240
GLOBALSTAR M041 [-]     
1 25650U 99012B   23281.77895104 -.00000136  00000+0 -65619-3 0  9997
2 25650  52.0046  31.8815 0002277 166.9030 193.1865 11.96646839104366
GLOBALSTAR M037 [+]     
1 25652U 99012D   23281.71765907 -.00000007  00000+0  53992-3 0  9997
2 25652  51.9991 264.3956 0001453 267.0715 264.7305 12.62385282133285
